HULIANWANG DIGUI-113    
1 66923U 25285J   26066.24118863 -.00000218  00000+0 -20287-3 0  9995
2 66923  50.0098 151.2965 0000100 306.2630  53.8233 13.29330256 12506
HULIANWANG DIGUI-114    
1 66953U 25287A   26066.22751605  .00000057  00000+0  98003-4 0  9996
2 66953  86.4970 316.8420 0001971  80.1470 279.9887 13.24415900 11840
HULIANWANG DIGUI-115    
1 66954U 25287B   26066.29549175  .00000050  00000+0  81921-4 0  9995
2 66954  86.4986 316.8284 0002048  79.0092 281.1272 13.24416021 11858
HULIANWANG DIGUI-116    
1 66955U 25287C   26066.28794479  .00000043  00000+0  66136-4 0  9997
2 66955  86.4926 316.7664 0002047  78.8221 281.3143 13.24416101 11852
HULIANWANG DIGUI-117    
1 66956U 25287D   26066.28043257  .00000050  00000+0  81258-4 0  9999
2 66956  86.4987 316.8217 0001139  19.6297 340.4881 13.24414228 11856
HULIANWANG DIGUI-118    
1 66957U 25287E   26066.27285981  .00000080  00000+0  15166-3 0  9998
2 66957  86.4963 316.7952 0002037  78.7503 281.3860 13.24415608 11853
HULIANWANG DIGUI-119    
1 67059U 25295A   26065.92619158 -.00000072  00000+0  95620-4 0  9995
2 67059  49.9835  33.2787 0001166 148.3017 211.7933 13.46538062 11887
HULIANWANG DIGUI-120    
1 67060U 25295B   26065.91235827 -.00000072  00000+0  94983-4 0  9994
2 67060  50.0312  33.2379 0000690 259.7821 100.2981 13.46886837 11881
HULIANWANG DIGUI-121    
1 67061U 25295C   26065.84542728 -.00000071  00000+0  97629-4 0  9997
2 67061  49.9987  33.5098 0000091  40.7039 319.3847 13.46944278 11879
HULIANWANG DIGUI-122    
1 67062U 25295D   26065.97940347 -.00000074  00000+0  92417-4 0  9994
2 67062  50.0090  32.9110 0000755 331.8680  28.2159 13.46845854 11893
HULIANWANG DIGUI-123    
1 67063U 25295E   26065.89804664 -.00000055  00000+0  12325-3 0  9995
2 67063  50.0059  33.1502 0000645 346.5990  13.4873 13.46994361 11888
HULIANWANG DIGUI-124    
1 67064U 25295F   26065.96570637 -.00000071  00000+0  96709-4 0  9991
2 67064  50.0029  32.7983 0000893  27.3896 332.7031 13.47115276 11893
HULIANWANG DIGUI-125    
1 67065U 25295G   26065.95892951 -.00000070  00000+0  98578-4 0  9992
2 67065  49.9992  32.7597 0001516  20.3092 339.7849 13.47592614 11894
HULIANWANG DIGUI-126    
1 67066U 25295H   26065.95173236 -.00000089  00000+0  67537-4 0  9992
2 67066  50.0020  32.7159 0001182  91.7957 268.3058 13.47239101 11893
HULIANWANG DIGUI-127    
1 67067U 25295J   26065.79310182 -.00000302  00000+0 -27910-3 0  9997
2 67067  50.0031  33.2352 0000938   9.6913 350.3985 13.47465042 11879
HULIANWANG DIGUI-128    
1 67236U 25311A   26066.16946955 -.00000064  00000+0  12684-3 0  9995
2 67236  50.0058 121.4091 0001056 109.6244 250.4743 13.31089696  9774
